{
  "type": "FeatureCollection",
  "features": [
    {
      "type": "Feature",
      "properties": {
        "norad_id": 35594,
        "name": "COSMOS 2251 DEB",
        "group": "cosmos-2251-debris",
        "lat": 6.614443551627674,
        "lon": 112.41396430233233,
        "alt_km": 624.0400680233925,
        "timestamp": "2025-12-10T18:57:00.461362+00:00",
        "meta_object_name": "COSMOS 2251 DEB",
        "meta_object_id": "1993-036AMM",
        "meta_epoch": "2025-12-09T02:34:25.968000",
        "meta_mean_motion": 14.87749225,
        "meta_eccentricity": 0.00305448,
        "meta_inclination": 73.8074,
        "meta_ra_of_asc_node": 113.8828,
        "meta_arg_of_pericenter": 225.3103,
        "meta_mean_anomaly": 134.5588,
        "meta_ephemeris_type": 0,
        "meta_classification_type": "U",
        "meta_norad_cat_id": 35594,
        "meta_element_set_no": 999,
        "meta_rev_at_epoch": 88131,
        "meta_bstar": 0.0022507147,
        "meta_mean_motion_dot": 0.00020735,
        "meta_mean_motion_ddot": 0,
        "tle_line1": "1 35594U 93036AMM 25343.10724500  .00020735  00000+0  22507-2 0  9997",
        "tle_line2": "2 35594  73.8074 113.8828 0030544 225.3103 134.5588 14.87749225881314"
      },
      "geometry": {
        "type": "Point",
        "coordinates": [
          112.41396430233233,
          6.614443551627674
        ]
      }
    },
    {
      "type": "Feature",
      "properties": {
        "norad_id": 35602,
        "name": "COSMOS 2251 DEB",
        "group": "cosmos-2251-debris",
        "lat": 32.69231329456735,
        "lon": -4.210269333953479,
        "alt_km": 476.16033873895594,
        "timestamp": "2025-12-10T18:57:00.461371+00:00",
        "meta_object_name": "COSMOS 2251 DEB",
        "meta_object_id": "1993-036AMV",
        "meta_epoch": "2025-12-10T08:07:43.839840",
        "meta_mean_motion": 15.34944429,
        "meta_eccentricity": 0.0090167,
        "meta_inclination": 73.9939,
        "meta_ra_of_asc_node": 187.3755,
        "meta_arg_of_pericenter": 253.6862,
        "meta_mean_anomaly": 282.5837,
        "meta_ephemeris_type": 0,
        "meta_classification_type": "U",
        "meta_norad_cat_id": 35602,
        "meta_element_set_no": 999,
        "meta_rev_at_epoch": 90054,
        "meta_bstar": 0.00063758,
        "meta_mean_motion_dot": 0.00024737,
        "meta_mean_motion_ddot": 0,
        "tle_line1": "1 35602U 93036AMV 25344.33870185  .00024737  00000+0  63758-3 0  9994",
        "tle_line2": "2 35602  73.9939 187.3755 0090167 253.6862 282.5837 15.34944429900547"
      },
      "geometry": {
        "type": "Point",
        "coordinates": [
          -4.210269333953479,
          32.69231329456735
        ]
      }
    },
    {
      "type": "Feature",
      "properties": {
        "norad_id": 35605,
        "name": "COSMOS 2251 DEB",
        "group": "cosmos-2251-debris",
        "lat": -22.87177176198305,
        "lon": 167.8495326303153,
        "alt_km": 466.84011284555345,
        "timestamp": "2025-12-10T18:57:00.461381+00:00",
        "meta_object_name": "COSMOS 2251 DEB",
        "meta_object_id": "1993-036AMY",
        "meta_epoch": "2025-12-08T17:29:07.135584",
        "meta_mean_motion": 15.31836492,
        "meta_eccentricity": 0.00282066,
        "meta_inclination": 73.8723,
        "meta_ra_of_asc_node": 345.2823,
        "meta_arg_of_pericenter": 280.9051,
        "meta_mean_anomaly": 78.8978,
        "meta_ephemeris_type": 0,
        "meta_classification_type": "U",
        "meta_norad_cat_id": 35605,
        "meta_element_set_no": 999,
        "meta_rev_at_epoch": 65910,
        "meta_bstar": 0.0070125726,
        "meta_mean_motion_dot": 0.002247,
        "meta_mean_motion_ddot": 0,
        "tle_line1": "1 35605U 93036AMY 25342.72855481  .00224700  00000+0  70126-2 0  9998",
        "tle_line2": "2 35605  73.8723 345.2823 0028206 280.9051  78.8978 15.31836492659101"
      },
      "geometry": {
        "type": "Point",
        "coordinates": [
          167.8495326303153,
          -22.87177176198305
        ]
      }
    },
    {
      "type": "Feature",
      "properties": {
        "norad_id": 35606,
        "name": "COSMOS 2251 DEB",
        "group": "cosmos-2251-debris",
        "lat": 33.09820155887112,
        "lon": -177.00889065559687,
        "alt_km": 997.184066991229,
        "timestamp": "2025-12-10T18:57:00.461391+00:00",
        "meta_object_name": "COSMOS 2251 DEB",
        "meta_object_id": "1993-036AMZ",
        "meta_epoch": "2025-12-09T08:10:26.094720",
        "meta_mean_motion": 13.41205491,
        "meta_eccentricity": 0.04577322,
        "meta_inclination": 73.8107,
        "meta_ra_of_asc_node": 16.2149,
        "meta_arg_of_pericenter": 222.4362,
        "meta_mean_anomaly": 134.0496,
        "meta_ephemeris_type": 0,
        "meta_classification_type": "U",
        "meta_norad_cat_id": 35606,
        "meta_element_set_no": 999,
        "meta_rev_at_epoch": 60994,
        "meta_bstar": 0.0014727579,
        "meta_mean_motion_dot": 1.492e-05,
        "meta_mean_motion_ddot": 0,
        "tle_line1": "1 35606U 93036AMZ 25343.34057980  .00001492  00000+0  14728-2 0  9993",
        "tle_line2": "2 35606  73.8107  16.2149 0457732 222.4362 134.0496 13.41205491609945"
      },
      "geometry": {
        "type": "Point",
        "coordinates": [
          -177.00889065559687,
          33.09820155887112
        ]
      }
    },
    {
      "type": "Feature",
      "properties": {
        "norad_id": 35611,
        "name": "COSMOS 2251 DEB",
        "group": "cosmos-2251-debris",
        "lat": 65.85198272138575,
        "lon": -137.16561251192007,
        "alt_km": 660.8025761817835,
        "timestamp": "2025-12-10T18:57:00.461401+00:00",
        "meta_object_name": "COSMOS 2251 DEB",
        "meta_object_id": "1993-036ANE",
        "meta_epoch": "2025-12-09T23:03:41.124096",
        "meta_mean_motion": 14.727217,
        "meta_eccentricity": 0.00218182,
        "meta_inclination": 74.0195,
        "meta_ra_of_asc_node": 184.7172,
        "meta_arg_of_pericenter": 258.0606,
        "meta_mean_anomaly": 101.812,
        "meta_ephemeris_type": 0,
        "meta_classification_type": "U",
        "meta_norad_cat_id": 35611,
        "meta_element_set_no": 999,
        "meta_rev_at_epoch": 87249,
        "meta_bstar": 0.003128691,
        "meta_mean_motion_dot": 0.00020072,
        "meta_mean_motion_ddot": 0,
        "tle_line1": "1 35611U 93036ANE 25343.96089264  .00020072  00000+0  31287-2 0  9991",
        "tle_line2": "2 35611  74.0195 184.7172 0021818 258.0606 101.8120 14.72721700872495"
      },
      "geometry": {
        "type": "Point",
        "coordinates": [
          -137.16561251192007,
          65.85198272138575
        ]
      }
    },
    {
      "type": "Feature",
      "properties": {
        "norad_id": 35614,
        "name": "COSMOS 2251 DEB",
        "group": "cosmos-2251-debris",
        "lat": -49.97141198464124,
        "lon": 171.2752477046018,
        "alt_km": 640.2282433541204,
        "timestamp": "2025-12-10T18:57:00.461411+00:00",
        "meta_object_name": "COSMOS 2251 DEB",
        "meta_object_id": "1993-036ANH",
        "meta_epoch": "2025-12-10T08:04:29.113248",
        "meta_mean_motion": 14.66977298,
        "meta_eccentricity": 0.0075928,
        "meta_inclination": 73.9593,
        "meta_ra_of_asc_node": 332.1225,
        "meta_arg_of_pericenter": 187.1902,
        "meta_mean_anomaly": 172.8186,
        "meta_ephemeris_type": 0,
        "meta_classification_type": "U",
        "meta_norad_cat_id": 35614,
        "meta_element_set_no": 999,
        "meta_rev_at_epoch": 87694,
        "meta_bstar": 0.0012622,
        "meta_mean_motion_dot": 7.356e-05,
        "meta_mean_motion_ddot": 0,
        "tle_line1": "1 35614U 93036ANH 25344.33644807  .00007356  00000+0  12622-2 0  9998",
        "tle_line2": "2 35614  73.9593 332.1225 0075928 187.1902 172.8186 14.66977298876940"
      },
      "geometry": {
        "type": "Point",
        "coordinates": [
          171.2752477046018,
          -49.97141198464124
        ]
      }
    },
    {
      "type": "Feature",
      "properties": {
        "norad_id": 35645,
        "name": "COSMOS 2251 DEB",
        "group": "cosmos-2251-debris",
        "lat": 70.20933215715793,
        "lon": -141.67429321865524,
        "alt_km": 774.8244724211982,
        "timestamp": "2025-12-10T18:57:00.461420+00:00",
        "meta_object_name": "COSMOS 2251 DEB",
        "meta_object_id": "1993-036ANL",
        "meta_epoch": "2025-12-10T00:12:18.796896",
        "meta_mean_motion": 14.45512802,
        "meta_eccentricity": 0.00695477,
        "meta_inclination": 73.9645,
        "meta_ra_of_asc_node": 92.847,
        "meta_arg_of_pericenter": 250.9584,
        "meta_mean_anomaly": 108.4031,
        "meta_ephemeris_type": 0,
        "meta_classification_type": "U",
        "meta_norad_cat_id": 35645,
        "meta_element_set_no": 999,
        "meta_rev_at_epoch": 86732,
        "meta_bstar": 0.0033862474,
        "meta_mean_motion_dot": 0.00012297,
        "meta_mean_motion_ddot": 0,
        "tle_line1": "1 35645U 93036ANL 25344.00855089  .00012297  00000+0  33862-2 0  9991",
        "tle_line2": "2 35645  73.9645  92.8470 0069547 250.9584 108.4031 14.45512802867328"
      },
      "geometry": {
        "type": "Point",
        "coordinates": [
          -141.67429321865524,
          70.20933215715793
        ]
      }
    }
  ]
}